EUTELSAT 21B            
1 38992U 12062B   25244.52911565  .00000133  00000+0  00000+0 0  9998
2 38992   0.0721  12.0206 0002543 156.5293  24.4512  1.00272975 46932
EUTELSAT 70B            
1 39020U 12069A   25244.53882235 -.00000041  00000+0  00000+0 0  9999
2 39020   0.0659 338.9753 0003791 187.7267  78.7107  1.00271679 46612
EUTELSAT 117 WEST A     
1 39122U 13012A   25244.57299166 -.00000010  00000+0  00000+0 0  9996
2 39122   0.0609 285.6467 0002963 243.4368 261.3657  1.00270857 45539
EUTELSAT 7B             
1 39163U 13022A   25244.59760510  .00000051  00000+0  00000+0 0  9994
2 39163   0.0691 342.0955 0001488  74.3213 146.7164  1.00271982 45063
EXPRESS-AT2             
1 39613U 14010B   25244.72549265 -.00000278  00000+0  00000+0 0  9991
2 39613   0.0213 239.8763 0000637 218.2061 284.0762  1.00276058 41603
EUTELSAT 3B             
1 39773U 14030A   25244.40461699  .00000023  00000+0  00000+0 0  9996
2 39773   0.0661 334.0496 0004286 182.7107 332.8103  1.00273582 41170
EUTELSAT 115 WEST B     
1 40425U 15010B   25244.57342499 -.00000022  00000+0  00000+0 0  9995
2 40425   0.0120  37.8234 0000269 211.1335 183.5555  1.00272654 38493
